STARLINK-36342          
1 67649U 26022B   26058.05286259  .00246683  00000+0  16044-2 0  9997
2 67649  97.2833  91.4929 0001600 112.6970 247.4465 15.75233276  3874
STARLINK-36703          
1 67650U 26022C   26058.05180598  .00354302  00000+0  22634-2 0  9998
2 67650  97.2826  91.4941 0002051 117.4173 242.7301 15.75349615  3873
STARLINK-36696          
1 67651U 26022D   26058.05003984  .00235606  00000+0  15336-2 0  9998
2 67651  97.2830  91.4969 0001639  94.8534 265.2918 15.75245853  3872
STARLINK-36699          
1 67652U 26022E   26058.04933318  .00283715  00000+0  18299-2 0  9996
2 67652  97.2845  91.4988 0001677 123.3356 236.8070 15.75323482  3870
STARLINK-36694          
1 67653U 26022F   26058.16668981 -.00158474  00000+0 -10796-2 0  9990
2 67653  97.2831  91.6261 0001362  81.0264 236.1158 15.75227754  5205
STARLINK-36620          
1 67654U 26022G   26058.16668981 -.00120590  00000+0 -81787-3 0  9998
2 67654  97.2836  91.6266 0001306  90.5131 228.6298 15.75223670  5206
STARLINK-36720          
1 67655U 26022H   26057.53688581  .00392530  00000+0  24974-2 0  9994
2 67655  97.2836  90.9704 0001839  58.1531 301.9913 15.75338751  3799
STARLINK-36688          
1 67656U 26022J   26057.53616782  .00309204  00000+0  19892-2 0  9998
2 67656  97.2834  90.9703 0001618 302.9852  57.1258 15.75312462  3791
STARLINK-36706          
1 67657U 26022K   26058.04298645  .00352793  00000+0  22585-2 0  9994
2 67657  97.2850  91.5051 0001850 119.2933 240.8518 15.75305263  3870
STARLINK-36701          
1 67658U 26022L   26057.53370035  .00256927  00000+0  16654-2 0  9994
2 67658  97.2830  90.9735 0000638 303.0277  57.0927 15.75282690  3799
STARLINK-36642          
1 67659U 26022M   26058.04085760  .00267996  00000+0  17303-2 0  9990
2 67659  97.2844  91.5093 0002059 118.8916 241.2556 15.75343755  3874
STARLINK-36673          
1 67660U 26022N   26057.53123821  .00285954  00000+0  18460-2 0  9995
2 67660  97.2844  90.9771 0001675  49.9056 310.2356 15.75296784  3799
