CCSDS_OMM_VERS = 2.0
CREATION_DATE  = 
ORIGINATOR     = 

OBJECT_NAME    = STARLINK-36342
OBJECT_ID      = 2026-022B
CENTER_NAME    = EARTH
REF_FRAME      = TEME
TIME_SYSTEM    = UTC
MEAN_ELEMENT_THEORY = SGP/SGP4

EPOCH          = 2026-02-27T01:16:07.327776
MEAN_MOTION    = 15.75233276
ECCENTRICITY   = .00016
INCLINATION    = 97.2833
RA_OF_ASC_NODE = 91.4929
ARG_OF_PERICENTER = 112.6970
MEAN_ANOMALY   = 247.4465

EPHEMERIS_TYPE = 0
CLASSIFICATION_TYPE = U
NORAD_CAT_ID   = 67649
ELEMENT_SET_NO = 999
REV_AT_EPOCH   = 387
BSTAR          = .16044E-2
MEAN_MOTION_DOT = .246683E-2
MEAN_MOTION_DDOT = 0

CCSDS_OMM_VERS = 2.0
CREATION_DATE  = 
ORIGINATOR     = 

OBJECT_NAME    = STARLINK-36703
OBJECT_ID      = 2026-022C
CENTER_NAME    = EARTH
REF_FRAME      = TEME
TIME_SYSTEM    = UTC
MEAN_ELEMENT_THEORY = SGP/SGP4

EPOCH          = 2026-02-27T01:14:36.036672
MEAN_MOTION    = 15.75349615
ECCENTRICITY   = .0002051
INCLINATION    = 97.2826
RA_OF_ASC_NODE = 91.4941
ARG_OF_PERICENTER = 117.4173
MEAN_ANOMALY   = 242.7301

EPHEMERIS_TYPE = 0
CLASSIFICATION_TYPE = U
NORAD_CAT_ID   = 67650
ELEMENT_SET_NO = 999
REV_AT_EPOCH   = 387
BSTAR          = .22634E-2
MEAN_MOTION_DOT = .354302E-2
MEAN_MOTION_DDOT = 0

CCSDS_OMM_VERS = 2.0
CREATION_DATE  = 
ORIGINATOR     = 

OBJECT_NAME    = STARLINK-36696
OBJECT_ID      = 2026-022D
CENTER_NAME    = EARTH
REF_FRAME      = TEME
TIME_SYSTEM    = UTC
MEAN_ELEMENT_THEORY = SGP/SGP4

EPOCH          = 2026-02-27T01:12:03.442176
MEAN_MOTION    = 15.75245853
ECCENTRICITY   = .0001639
INCLINATION    = 97.2830
RA_OF_ASC_NODE = 91.4969
ARG_OF_PERICENTER = 94.8534
MEAN_ANOMALY   = 265.2918

EPHEMERIS_TYPE = 0
CLASSIFICATION_TYPE = U
NORAD_CAT_ID   = 67651
ELEMENT_SET_NO = 999
REV_AT_EPOCH   = 387
BSTAR          = .15336E-2
MEAN_MOTION_DOT = .235606E-2
MEAN_MOTION_DDOT = 0

CCSDS_OMM_VERS = 2.0
CREATION_DATE  = 
ORIGINATOR     = 

OBJECT_NAME    = STARLINK-36699
OBJECT_ID      = 2026-022E
CENTER_NAME    = EARTH
REF_FRAME      = TEME
TIME_SYSTEM    = UTC
MEAN_ELEMENT_THEORY = SGP/SGP4

EPOCH          = 2026-02-27T01:11:02.386752
MEAN_MOTION    = 15.75323482
ECCENTRICITY   = .0001677
INCLINATION    = 97.2845
RA_OF_ASC_NODE = 91.4988
ARG_OF_PERICENTER = 123.3356
MEAN_ANOMALY   = 236.8070

EPHEMERIS_TYPE = 0
CLASSIFICATION_TYPE = U
NORAD_CAT_ID   = 67652
ELEMENT_SET_NO = 999
REV_AT_EPOCH   = 387
BSTAR          = .18299E-2
MEAN_MOTION_DOT = .283715E-2
MEAN_MOTION_DDOT = 0

CCSDS_OMM_VERS = 2.0
CREATION_DATE  = 
ORIGINATOR     = 

OBJECT_NAME    = STARLINK-36694
OBJECT_ID      = 2026-022F
CENTER_NAME    = EARTH
REF_FRAME      = TEME
TIME_SYSTEM    = UTC
MEAN_ELEMENT_THEORY = SGP/SGP4

EPOCH          = 2026-02-27T04:00:01.999584
MEAN_MOTION    = 15.75227754
ECCENTRICITY   = .0001362
INCLINATION    = 97.2831
RA_OF_ASC_NODE = 91.6261
ARG_OF_PERICENTER = 81.0264
MEAN_ANOMALY   = 236.1158

EPHEMERIS_TYPE = 0
CLASSIFICATION_TYPE = U
NORAD_CAT_ID   = 67653
ELEMENT_SET_NO = 999
REV_AT_EPOCH   = 520
BSTAR          = -.10796E-2
MEAN_MOTION_DOT = -.158474E-2
MEAN_MOTION_DDOT = 0

CCSDS_OMM_VERS = 2.0
CREATION_DATE  = 
ORIGINATOR     = 

OBJECT_NAME    = STARLINK-36620
OBJECT_ID      = 2026-022G
CENTER_NAME    = EARTH
REF_FRAME      = TEME
TIME_SYSTEM    = UTC
MEAN_ELEMENT_THEORY = SGP/SGP4

EPOCH          = 2026-02-27T04:00:01.999584
MEAN_MOTION    = 15.75223670
ECCENTRICITY   = .0001306
INCLINATION    = 97.2836
RA_OF_ASC_NODE = 91.6266
ARG_OF_PERICENTER = 90.5131
MEAN_ANOMALY   = 228.6298

EPHEMERIS_TYPE = 0
CLASSIFICATION_TYPE = U
NORAD_CAT_ID   = 67654
ELEMENT_SET_NO = 999
REV_AT_EPOCH   = 520
BSTAR          = -.81787E-3
MEAN_MOTION_DOT = -.12059E-2
MEAN_MOTION_DDOT = 0

CCSDS_OMM_VERS = 2.0
CREATION_DATE  = 
ORIGINATOR     = 

OBJECT_NAME    = STARLINK-36720
OBJECT_ID      = 2026-022H
CENTER_NAME    = EARTH
REF_FRAME      = TEME
TIME_SYSTEM    = UTC
MEAN_ELEMENT_THEORY = SGP/SGP4

EPOCH          = 2026-02-26T12:53:06.933984
MEAN_MOTION    = 15.75338751
ECCENTRICITY   = .0001839
INCLINATION    = 97.2836
RA_OF_ASC_NODE = 90.9704
ARG_OF_PERICENTER = 58.1531
MEAN_ANOMALY   = 301.9913

EPHEMERIS_TYPE = 0
CLASSIFICATION_TYPE = U
NORAD_CAT_ID   = 67655
ELEMENT_SET_NO = 999
REV_AT_EPOCH   = 379
BSTAR          = .24974E-2
MEAN_MOTION_DOT = .39253E-2
MEAN_MOTION_DDOT = 0

CCSDS_OMM_VERS = 2.0
CREATION_DATE  = 
ORIGINATOR     = 

OBJECT_NAME    = STARLINK-36688
OBJECT_ID      = 2026-022J
CENTER_NAME    = EARTH
REF_FRAME      = TEME
TIME_SYSTEM    = UTC
MEAN_ELEMENT_THEORY = SGP/SGP4

EPOCH          = 2026-02-26T12:52:04.899648
MEAN_MOTION    = 15.75312462
ECCENTRICITY   = .0001618
INCLINATION    = 97.2834
RA_OF_ASC_NODE = 90.9703
ARG_OF_PERICENTER = 302.9852
MEAN_ANOMALY   = 57.1258

EPHEMERIS_TYPE = 0
CLASSIFICATION_TYPE = U
NORAD_CAT_ID   = 67656
ELEMENT_SET_NO = 999
REV_AT_EPOCH   = 379
BSTAR          = .19892E-2
MEAN_MOTION_DOT = .309204E-2
MEAN_MOTION_DDOT = 0

CCSDS_OMM_VERS = 2.0
CREATION_DATE  = 
ORIGINATOR     = 

OBJECT_NAME    = STARLINK-36706
OBJECT_ID      = 2026-022K
CENTER_NAME    = EARTH
REF_FRAME      = TEME
TIME_SYSTEM    = UTC
MEAN_ELEMENT_THEORY = SGP/SGP4

EPOCH          = 2026-02-27T01:01:54.029280
MEAN_MOTION    = 15.75305263
ECCENTRICITY   = .000185
INCLINATION    = 97.2850
RA_OF_ASC_NODE = 91.5051
ARG_OF_PERICENTER = 119.2933
MEAN_ANOMALY   = 240.8518

EPHEMERIS_TYPE = 0
CLASSIFICATION_TYPE = U
NORAD_CAT_ID   = 67657
ELEMENT_SET_NO = 999
REV_AT_EPOCH   = 387
BSTAR          = .22585E-2
MEAN_MOTION_DOT = .352793E-2
MEAN_MOTION_DDOT = 0

CCSDS_OMM_VERS = 2.0
CREATION_DATE  = 
ORIGINATOR     = 

OBJECT_NAME    = STARLINK-36701
OBJECT_ID      = 2026-022L
CENTER_NAME    = EARTH
REF_FRAME      = TEME
TIME_SYSTEM    = UTC
MEAN_ELEMENT_THEORY = SGP/SGP4

EPOCH          = 2026-02-26T12:48:31.710240
MEAN_MOTION    = 15.75282690
ECCENTRICITY   = .0000638
INCLINATION    = 97.2830
RA_OF_ASC_NODE = 90.9735
ARG_OF_PERICENTER = 303.0277
MEAN_ANOMALY   = 57.0927

EPHEMERIS_TYPE = 0
CLASSIFICATION_TYPE = U
NORAD_CAT_ID   = 67658
ELEMENT_SET_NO = 999
REV_AT_EPOCH   = 379
BSTAR          = .16654E-2
MEAN_MOTION_DOT = .256927E-2
MEAN_MOTION_DDOT = 0

CCSDS_OMM_VERS = 2.0
CREATION_DATE  = 
ORIGINATOR     = 

OBJECT_NAME    = STARLINK-36642
OBJECT_ID      = 2026-022M
CENTER_NAME    = EARTH
REF_FRAME      = TEME
TIME_SYSTEM    = UTC
MEAN_ELEMENT_THEORY = SGP/SGP4

EPOCH          = 2026-02-27T00:58:50.096640
MEAN_MOTION    = 15.75343755
ECCENTRICITY   = .0002059
INCLINATION    = 97.2844
RA_OF_ASC_NODE = 91.5093
ARG_OF_PERICENTER = 118.8916
MEAN_ANOMALY   = 241.2556

EPHEMERIS_TYPE = 0
CLASSIFICATION_TYPE = U
NORAD_CAT_ID   = 67659
ELEMENT_SET_NO = 999
REV_AT_EPOCH   = 387
BSTAR          = .17303E-2
MEAN_MOTION_DOT = .267996E-2
MEAN_MOTION_DDOT = 0

CCSDS_OMM_VERS = 2.0
CREATION_DATE  = 
ORIGINATOR     = 

OBJECT_NAME    = STARLINK-36673
OBJECT_ID      = 2026-022N
CENTER_NAME    = EARTH
REF_FRAME      = TEME
TIME_SYSTEM    = UTC
MEAN_ELEMENT_THEORY = SGP/SGP4

EPOCH          = 2026-02-26T12:44:58.981344
MEAN_MOTION    = 15.75296784
ECCENTRICITY   = .0001675
INCLINATION    = 97.2844
RA_OF_ASC_NODE = 90.9771
ARG_OF_PERICENTER = 49.9056
MEAN_ANOMALY   = 310.2356

EPHEMERIS_TYPE = 0
CLASSIFICATION_TYPE = U
NORAD_CAT_ID   = 67660
ELEMENT_SET_NO = 999
REV_AT_EPOCH   = 379
BSTAR          = .1846E-2
MEAN_MOTION_DOT = .285954E-2
MEAN_MOTION_DDOT = 0

